[{"CCSDS_OMM_VERS":"2.0","COMMENT":"GENERATED VIA SPACE-TRACK.ORG API","CREATION_DATE":"2021-10-02T19:12:03","ORIGINATOR":"18 SPCS","OBJECT_NAME":"TBA - TO BE ASSIGNED","OBJECT_ID":"","CENTER_NAME":"EARTH","REF_FRAME":"TEME","TIME_SYSTEM":"UTC","MEAN_ELEMENT_THEORY":"SGP4","EPOCH":"2021-10-02T08:31:26.148864","MEAN_MOTION":"13.35105632","ECCENTRICITY":"0.00500090","INCLINATION":"100.2889","RA_OF_ASC_NODE":"49.2505","ARG_OF_PERICENTER":"337.8092","MEAN_ANOMALY":"22.0868","EPHEMERIS_TYPE":"0","CLASSIFICATION_TYPE":"U","NORAD_CAT_ID":"89460","ELEMENT_SET_NO":"999","REV_AT_EPOCH":"22843","BSTAR":"0.00113700000000","MEAN_MOTION_DOT":"0.00000532","MEAN_MOTION_DDOT":"0.0000000000000","SEMIMAJOR_AXIS":"7505.704","PERIOD":"107.857","APOAPSIS":"1165.104","PERIAPSIS":"1090.034","OBJECT_TYPE":"TBA","RCS_SIZE":null,"COUNTRY_CODE":null,"LAUNCH_DATE":null,"SITE":null,"DECAY_DATE":null,"FILE":"3140729","GP_ID":"185993536","TLE_LINE0":"0 TBA - TO BE ASSIGNED","TLE_LINE1":"1 89460U          21275.35516376 +.00000532 +00000+0 +11370-2 0  9993","TLE_LINE2":"2 89460 100.2889  49.2505 0050009 337.8092  22.0868 13.35105632228432"},{"CCSDS_OMM_VERS":"2.0","COMMENT":"GENERATED VIA SPACE-TRACK.ORG API","CREATION_DATE":"2021-10-02T19:12:03","ORIGINATOR":"18 SPCS","OBJECT_NAME":"TBA - TO BE ASSIGNED","OBJECT_ID":"","CENTER_NAME":"EARTH","REF_FRAME":"TEME","TIME_SYSTEM":"UTC","MEAN_ELEMENT_THEORY":"SGP4","EPOCH":"2021-10-02T10:46:54.208128","MEAN_MOTION":"14.97466429","ECCENTRICITY":"0.01445920","INCLINATION":"97.2695","RA_OF_ASC_NODE":"91.6374","ARG_OF_PERICENTER":"318.6187","MEAN_ANOMALY":"40.4153","EPHEMERIS_TYPE":"0","CLASSIFICATION_TYPE":"U","NORAD_CAT_ID":"89453","ELEMENT_SET_NO":"999","REV_AT_EPOCH":"27741","BSTAR":"0.00032039000000","MEAN_MOTION_DOT":"0.00004562","MEAN_MOTION_DDOT":"0.0000000000000","SEMIMAJOR_AXIS":"6952.865","PERIOD":"96.162","APOAPSIS":"675.263","PERIAPSIS":"474.197","OBJECT_TYPE":"TBA","RCS_SIZE":null,"COUNTRY_CODE":null,"LAUNCH_DATE":null,"SITE":null,"DECAY_DATE":null,"FILE":"3140729","GP_ID":"185993529","TLE_LINE0":"0 TBA - TO BE ASSIGNED","TLE_LINE1":"1 89453U          21275.44923852 +.00004562 +00000+0 +32039-3 0  9999","TLE_LINE2":"2 89453  97.2695  91.6374 0144592 318.6187  40.4153 14.97466429277418"},{"CCSDS_OMM_VERS":"2.0","COMMENT":"GENERATED VIA SPACE-TRACK.ORG API","CREATION_DATE":"2021-10-02T19:12:03","ORIGINATOR":"18 SPCS","OBJECT_NAME":"TBA - TO BE ASSIGNED","OBJECT_ID":"","CENTER_NAME":"EARTH","REF_FRAME":"TEME","TIME_SYSTEM":"UTC","MEAN_ELEMENT_THEORY":"SGP4","EPOCH":"2021-10-02T08:41:55.227264","MEAN_MOTION":"15.09928394","ECCENTRICITY":"0.00126170","INCLINATION":"86.3760","RA_OF_ASC_NODE":"252.1822","ARG_OF_PERICENTER":"149.8690","MEAN_ANOMALY":"210.3276","EPHEMERIS_TYPE":"0","CLASSIFICATION_TYPE":"U","NORAD_CAT_ID":"89438","ELEMENT_SET_NO":"999","REV_AT_EPOCH":"31802","BSTAR":"0.00223990000000","MEAN_MOTION_DOT":"0.00036535","MEAN_MOTION_DDOT":"0.0000000000000","SEMIMAJOR_AXIS":"6914.556","PERIOD":"95.369","APOAPSIS":"545.145","PERIAPSIS":"527.697","OBJECT_TYPE":"TBA","RCS_SIZE":null,"COUNTRY_CODE":null,"LAUNCH_DATE":null,"SITE":null,"DECAY_DATE":null,"FILE":"3140729","GP_ID":"185993632","TLE_LINE0":"0 TBA - TO BE ASSIGNED","TLE_LINE1":"1 89438U          21275.36244476 +.00036535 +00000+0 +22399-2 0  9993","TLE_LINE2":"2 89438  86.3760 252.1822 0012617 149.8690 210.3276 15.09928394318025"},{"CCSDS_OMM_VERS":"2.0","COMMENT":"GENERATED VIA SPACE-TRACK.ORG API","CREATION_DATE":"2020-04-15T17:33:23","ORIGINATOR":"18 SPCS","OBJECT_NAME":"TBA - TO BE ASSIGNED","OBJECT_ID":null,"CENTER_NAME":"EARTH","REF_FRAME":"TEME","TIME_SYSTEM":"UTC","MEAN_ELEMENT_THEORY":"SGP4","EPOCH":"2020-04-15T01:16:59.035584","MEAN_MOTION":"13.75829167","ECCENTRICITY":"0.00284480","INCLINATION":"82.9425","RA_OF_ASC_NODE":"320.2933","ARG_OF_PERICENTER":"356.5833","MEAN_ANOMALY":"3.5125","EPHEMERIS_TYPE":"0","CLASSIFICATION_TYPE":"U","NORAD_CAT_ID":"89410","ELEMENT_SET_NO":"999","REV_AT_EPOCH":"30273","BSTAR":"0.00027076000000","MEAN_MOTION_DOT":"0.00000278","MEAN_MOTION_DDOT":"0.0000000000000","SEMIMAJOR_AXIS":"7356.854","PERIOD":"104.664","APOAPSIS":"999.648","PERIAPSIS":"957.790","OBJECT_TYPE":"TBA","RCS_SIZE":null,"COUNTRY_CODE":null,"LAUNCH_DATE":null,"SITE":null,"DECAY_DATE":null,"FILE":"2734503","GP_ID":"152210986","TLE_LINE0":"0 TBA - TO BE ASSIGNED","TLE_LINE1":"1 89410U          20106.05346106 +.00000278 +00000+0 +27076-3 0  9997","TLE_LINE2":"2 89410  82.9425 320.2933 0028448 356.5833   3.5125 13.75829167302735"},{"CCSDS_OMM_VERS":"2.0","COMMENT":"GENERATED VIA SPACE-TRACK.ORG API","CREATION_DATE":"2021-10-02T19:12:03","ORIGINATOR":"18 SPCS","OBJECT_NAME":"TBA - TO BE ASSIGNED","OBJECT_ID":"","CENTER_NAME":"EARTH","REF_FRAME":"TEME","TIME_SYSTEM":"UTC","MEAN_ELEMENT_THEORY":"SGP4","EPOCH":"2021-10-01T22:31:50.237760","MEAN_MOTION":"12.96719126","ECCENTRICITY":"0.00228170","INCLINATION":"90.2754","RA_OF_ASC_NODE":"330.2298","ARG_OF_PERICENTER":"324.1310","MEAN_ANOMALY":"211.5057","EPHEMERIS_TYPE":"0","CLASSIFICATION_TYPE":"U","NORAD_CAT_ID":"89403","ELEMENT_SET_NO":"999","REV_AT_EPOCH":"27904","BSTAR":"0.00368100000000","MEAN_MOTION_DOT":"0.00001065","MEAN_MOTION_DDOT":"0.0000000000000","SEMIMAJOR_AXIS":"7653.109","PERIOD":"111.049","APOAPSIS":"1292.436","PERIAPSIS":"1257.512","OBJECT_TYPE":"TBA","RCS_SIZE":null,"COUNTRY_CODE":null,"LAUNCH_DATE":null,"SITE":null,"DECAY_DATE":null,"FILE":"3140729","GP_ID":"185993337","TLE_LINE0":"0 TBA - TO BE ASSIGNED","TLE_LINE1":"1 89403U          21274.93877590 +.00001065 +00000+0 +36810-2 0  9999","TLE_LINE2":"2 89403  90.2754 330.2298 0022817 324.1310 211.5057 12.96719126279041"},{"CCSDS_OMM_VERS":"2.0","COMMENT":"GENERATED VIA SPACE-TRACK.ORG API","CREATION_DATE":"2021-09-27T17:57:00","ORIGINATOR":"18 SPCS","OBJECT_NAME":"TBA - TO BE ASSIGNED","OBJECT_ID":"","CENTER_NAME":"EARTH","REF_FRAME":"TEME","TIME_SYSTEM":"UTC","MEAN_ELEMENT_THEORY":"SGP4","EPOCH":"2021-09-27T05:21:25.124544","MEAN_MOTION":"8.16226525","ECCENTRICITY":"0.23286510","INCLINATION":"63.1748","RA_OF_ASC_NODE":"93.7947","ARG_OF_PERICENTER":"99.3098","MEAN_ANOMALY":"287.6226","EPHEMERIS_TYPE":"0","CLASSIFICATION_TYPE":"U","NORAD_CAT_ID":"89400","ELEMENT_SET_NO":"999","REV_AT_EPOCH":"22327","BSTAR":"0.15294000000000","MEAN_MOTION_DOT":"0.00002217","MEAN_MOTION_DDOT":"0.0000000000000","SEMIMAJOR_AXIS":"10419.848","PERIOD":"176.422","APOAPSIS":"6468.132","PERIAPSIS":"1615.294","OBJECT_TYPE":"TBA","RCS_SIZE":null,"COUNTRY_CODE":null,"LAUNCH_DATE":null,"SITE":null,"DECAY_DATE":null,"FILE":"3130989","GP_ID":"185613198","TLE_LINE0":"0 TBA - TO BE ASSIGNED","TLE_LINE1":"1 89400U          21270.22320746 +.00002217 +00000+0 +15294+0 0  9990","TLE_LINE2":"2 89400  63.1748  93.7947 2328651  99.3098 287.6226  8.16226525223272"},{"CCSDS_OMM_VERS":"2.0","COMMENT":"GENERATED VIA SPACE-TRACK.ORG API","CREATION_DATE":"2021-10-02T19:12:03","ORIGINATOR":"18 SPCS","OBJECT_NAME":"TBA - TO BE ASSIGNED","OBJECT_ID":"","CENTER_NAME":"EARTH","REF_FRAME":"TEME","TIME_SYSTEM":"UTC","MEAN_ELEMENT_THEORY":"SGP4","EPOCH":"2021-10-02T13:26:17.496672","MEAN_MOTION":"12.01139966","ECCENTRICITY":"0.02245820","INCLINATION":"102.3593","RA_OF_ASC_NODE":"314.4955","ARG_OF_PERICENTER":"215.6098","MEAN_ANOMALY":"306.0093","EPHEMERIS_TYPE":"0","CLASSIFICATION_TYPE":"U","NORAD_CAT_ID":"89395","ELEMENT_SET_NO":"999","REV_AT_EPOCH":"34075","BSTAR":"0.00488290000000","MEAN_MOTION_DOT":"0.00000388","MEAN_MOTION_DDOT":"0.0000000000000","SEMIMAJOR_AXIS":"8053.897","PERIOD":"119.886","APOAPSIS":"1856.639","PERIAPSIS":"1494.886","OBJECT_TYPE":"TBA","RCS_SIZE":null,"COUNTRY_CODE":null,"LAUNCH_DATE":null,"SITE":null,"DECAY_DATE":null,"FILE":"3140729","GP_ID":"185993515","TLE_LINE0":"0 TBA - TO BE ASSIGNED","TLE_LINE1":"1 89395U          21275.55992473 +.00000388 +00000+0 +48829-2 0  9996","TLE_LINE2":"2 89395 102.3593 314.4955 0224582 215.6098 306.0093 12.01139966340752"},{"CCSDS_OMM_VERS":"2.0","COMMENT":"GENERATED VIA SPACE-TRACK.ORG API","CREATION_DATE":"2021-10-01T17:51:17","ORIGINATOR":"18 SPCS","OBJECT_NAME":"TBA - TO BE ASSIGNED","OBJECT_ID":"","CENTER_NAME":"EARTH","REF_FRAME":"TEME","TIME_SYSTEM":"UTC","MEAN_ELEMENT_THEORY":"SGP4","EPOCH":"2021-10-01T09:58:04.696032","MEAN_MOTION":"14.80656518","ECCENTRICITY":"0.02027490","INCLINATION":"97.4180","RA_OF_ASC_NODE":"76.3590","ARG_OF_PERICENTER":"142.0118","MEAN_ANOMALY":"219.5597","EPHEMERIS_TYPE":"0","CLASSIFICATION_TYPE":"U","NORAD_CAT_ID":"89391","ELEMENT_SET_NO":"999","REV_AT_EPOCH":"19832","BSTAR":"0.00078130000000","MEAN_MOTION_DOT":"0.00008509","MEAN_MOTION_DDOT":"0.0000000000000","SEMIMAJOR_AXIS":"7005.390","PERIOD":"97.254","APOAPSIS":"769.288","PERIAPSIS":"485.221","OBJECT_TYPE":"TBA","RCS_SIZE":null,"COUNTRY_CODE":null,"LAUNCH_DATE":null,"SITE":null,"DECAY_DATE":null,"FILE":"3138859","GP_ID":"185904509","TLE_LINE0":"0 TBA - TO BE ASSIGNED","TLE_LINE1":"1 89391U          21274.41533213 +.00008509 +00000+0 +78130-3 0  9991","TLE_LINE2":"2 89391  97.4180  76.3590 0202749 142.0118 219.5597 14.80656518198327"}]